STARLINK-36822          
1 67909U 26036F   26068.77124653  .00165930  00000+0  77380-3 0  9996
2 67909  42.9990 249.2567 0001897 287.1777  72.8887 15.82063326  3688
STARLINK-36847          
1 67910U 26036G   26068.77049737  .00183587  00000+0  85382-3 0  9996
2 67910  42.9991 249.2503 0001928 289.8093  70.2571 15.82071047  3687
STARLINK-36736          
1 67911U 26036H   26068.76974937  .00167202  00000+0  77971-3 0  9996
2 67911  42.9996 249.2441 0001973 278.0513  82.0135 15.82060213  3681
STARLINK-36676          
1 67912U 26036J   26068.83213115  .00283082  00000+0  12979-2 0  9990
2 67912  42.9988 248.8505 0001986 284.1047  75.9604 15.82106299  3691
STARLINK-36690          
1 67913U 26036K   26068.83138364  .00302901  00000+0  13854-2 0  9998
2 67913  42.9988 248.8446 0002061 291.8378  68.2274 15.82106997  3696
STARLINK-36724          
1 67914U 26036L   26068.82988471  .00293440  00000+0  13440-2 0  9998
2 67914  42.9991 248.8317 0001942 281.1198  78.9455 15.82100746  3692
STARLINK-36723          
1 67915U 26036M   26068.83063384  .00303709  00000+0  13891-2 0  9997
2 67915  42.9988 248.8382 0002019 289.2064  70.8590 15.82104484  3692
STARLINK-36721          
1 67916U 26036N   26068.82913681  .00296666  00000+0  13584-2 0  9993
2 67916  42.9991 248.8268 0002096 285.6993  74.3647 15.82098921  3696
STARLINK-36722          
1 67917U 26036P   26068.76525168  .00134275  00000+0  62900-3 0  9990
2 67917  42.9991 249.2065 0002186 306.6359  53.4311 15.82061259  3686
STARLINK-36341          
1 67918U 26036Q   26067.94303620  .00032654  00000+0  15768-3 0  9995
2 67918  42.9986 254.2224 0002392 283.2687  76.7918 15.81924776  3555
STARLINK-36663          
1 67919U 26036R   26068.83334490  .00007437  00000+0  37800-4 0  9997
2 67919  42.9995 248.7816 0001697 278.2453 114.3584 15.82026670  3671
STARLINK-36375          
1 67920U 26036S   26068.51046693  .00427659  00000+0  19289-2 0  9990
2 67920  42.9988 250.7351 0002070 268.4533  91.6102 15.82081593  3643
