CCSDS_OMM_VERS = 2.0
CREATION_DATE  = 
ORIGINATOR     = 

OBJECT_NAME    = STARLINK-36822
OBJECT_ID      = 2026-036F
CENTER_NAME    = EARTH
REF_FRAME      = TEME
TIME_SYSTEM    = UTC
MEAN_ELEMENT_THEORY = SGP/SGP4

EPOCH          = 2026-03-09T18:30:35.700192
MEAN_MOTION    = 15.82063326
ECCENTRICITY   = .0001897
INCLINATION    = 42.9990
RA_OF_ASC_NODE = 249.2567
ARG_OF_PERICENTER = 287.1777
MEAN_ANOMALY   = 72.8887

EPHEMERIS_TYPE = 0
CLASSIFICATION_TYPE = U
NORAD_CAT_ID   = 67909
ELEMENT_SET_NO = 999
REV_AT_EPOCH   = 368
BSTAR          = .7738E-3
MEAN_MOTION_DOT = .16593E-2
MEAN_MOTION_DDOT = 0

CCSDS_OMM_VERS = 2.0
CREATION_DATE  = 
ORIGINATOR     = 

OBJECT_NAME    = STARLINK-36847
OBJECT_ID      = 2026-036G
CENTER_NAME    = EARTH
REF_FRAME      = TEME
TIME_SYSTEM    = UTC
MEAN_ELEMENT_THEORY = SGP/SGP4

EPOCH          = 2026-03-09T18:29:30.972768
MEAN_MOTION    = 15.82071047
ECCENTRICITY   = .0001928
INCLINATION    = 42.9991
RA_OF_ASC_NODE = 249.2503
ARG_OF_PERICENTER = 289.8093
MEAN_ANOMALY   = 70.2571

EPHEMERIS_TYPE = 0
CLASSIFICATION_TYPE = U
NORAD_CAT_ID   = 67910
ELEMENT_SET_NO = 999
REV_AT_EPOCH   = 368
BSTAR          = .85382E-3
MEAN_MOTION_DOT = .183587E-2
MEAN_MOTION_DDOT = 0

CCSDS_OMM_VERS = 2.0
CREATION_DATE  = 
ORIGINATOR     = 

OBJECT_NAME    = STARLINK-36736
OBJECT_ID      = 2026-036H
CENTER_NAME    = EARTH
REF_FRAME      = TEME
TIME_SYSTEM    = UTC
MEAN_ELEMENT_THEORY = SGP/SGP4

EPOCH          = 2026-03-09T18:28:26.345568
MEAN_MOTION    = 15.82060213
ECCENTRICITY   = .0001973
INCLINATION    = 42.9996
RA_OF_ASC_NODE = 249.2441
ARG_OF_PERICENTER = 278.0513
MEAN_ANOMALY   = 82.0135

EPHEMERIS_TYPE = 0
CLASSIFICATION_TYPE = U
NORAD_CAT_ID   = 67911
ELEMENT_SET_NO = 999
REV_AT_EPOCH   = 368
BSTAR          = .77971E-3
MEAN_MOTION_DOT = .167202E-2
MEAN_MOTION_DDOT = 0

CCSDS_OMM_VERS = 2.0
CREATION_DATE  = 
ORIGINATOR     = 

OBJECT_NAME    = STARLINK-36676
OBJECT_ID      = 2026-036J
CENTER_NAME    = EARTH
REF_FRAME      = TEME
TIME_SYSTEM    = UTC
MEAN_ELEMENT_THEORY = SGP/SGP4

EPOCH          = 2026-03-09T19:58:16.131360
MEAN_MOTION    = 15.82106299
ECCENTRICITY   = .0001986
INCLINATION    = 42.9988
RA_OF_ASC_NODE = 248.8505
ARG_OF_PERICENTER = 284.1047
MEAN_ANOMALY   = 75.9604

EPHEMERIS_TYPE = 0
CLASSIFICATION_TYPE = U
NORAD_CAT_ID   = 67912
ELEMENT_SET_NO = 999
REV_AT_EPOCH   = 369
BSTAR          = .12979E-2
MEAN_MOTION_DOT = .283082E-2
MEAN_MOTION_DDOT = 0

CCSDS_OMM_VERS = 2.0
CREATION_DATE  = 
ORIGINATOR     = 

OBJECT_NAME    = STARLINK-36690
OBJECT_ID      = 2026-036K
CENTER_NAME    = EARTH
REF_FRAME      = TEME
TIME_SYSTEM    = UTC
MEAN_ELEMENT_THEORY = SGP/SGP4

EPOCH          = 2026-03-09T19:57:11.546496
MEAN_MOTION    = 15.82106997
ECCENTRICITY   = .0002061
INCLINATION    = 42.9988
RA_OF_ASC_NODE = 248.8446
ARG_OF_PERICENTER = 291.8378
MEAN_ANOMALY   = 68.2274

EPHEMERIS_TYPE = 0
CLASSIFICATION_TYPE = U
NORAD_CAT_ID   = 67913
ELEMENT_SET_NO = 999
REV_AT_EPOCH   = 369
BSTAR          = .13854E-2
MEAN_MOTION_DOT = .302901E-2
MEAN_MOTION_DDOT = 0

CCSDS_OMM_VERS = 2.0
CREATION_DATE  = 
ORIGINATOR     = 

OBJECT_NAME    = STARLINK-36724
OBJECT_ID      = 2026-036L
CENTER_NAME    = EARTH
REF_FRAME      = TEME
TIME_SYSTEM    = UTC
MEAN_ELEMENT_THEORY = SGP/SGP4

EPOCH          = 2026-03-09T19:55:02.038944
MEAN_MOTION    = 15.82100746
ECCENTRICITY   = .0001942
INCLINATION    = 42.9991
RA_OF_ASC_NODE = 248.8317
ARG_OF_PERICENTER = 281.1198
MEAN_ANOMALY   = 78.9455

EPHEMERIS_TYPE = 0
CLASSIFICATION_TYPE = U
NORAD_CAT_ID   = 67914
ELEMENT_SET_NO = 999
REV_AT_EPOCH   = 369
BSTAR          = .1344E-2
MEAN_MOTION_DOT = .29344E-2
MEAN_MOTION_DDOT = 0

CCSDS_OMM_VERS = 2.0
CREATION_DATE  = 
ORIGINATOR     = 

OBJECT_NAME    = STARLINK-36723
OBJECT_ID      = 2026-036M
CENTER_NAME    = EARTH
REF_FRAME      = TEME
TIME_SYSTEM    = UTC
MEAN_ELEMENT_THEORY = SGP/SGP4

EPOCH          = 2026-03-09T19:56:06.763776
MEAN_MOTION    = 15.82104484
ECCENTRICITY   = .0002019
INCLINATION    = 42.9988
RA_OF_ASC_NODE = 248.8382
ARG_OF_PERICENTER = 289.2064
MEAN_ANOMALY   = 70.8590

EPHEMERIS_TYPE = 0
CLASSIFICATION_TYPE = U
NORAD_CAT_ID   = 67915
ELEMENT_SET_NO = 999
REV_AT_EPOCH   = 369
BSTAR          = .13891E-2
MEAN_MOTION_DOT = .303709E-2
MEAN_MOTION_DDOT = 0

CCSDS_OMM_VERS = 2.0
CREATION_DATE  = 
ORIGINATOR     = 

OBJECT_NAME    = STARLINK-36721
OBJECT_ID      = 2026-036N
CENTER_NAME    = EARTH
REF_FRAME      = TEME
TIME_SYSTEM    = UTC
MEAN_ELEMENT_THEORY = SGP/SGP4

EPOCH          = 2026-03-09T19:53:57.420384
MEAN_MOTION    = 15.82098921
ECCENTRICITY   = .0002096
INCLINATION    = 42.9991
RA_OF_ASC_NODE = 248.8268
ARG_OF_PERICENTER = 285.6993
MEAN_ANOMALY   = 74.3647

EPHEMERIS_TYPE = 0
CLASSIFICATION_TYPE = U
NORAD_CAT_ID   = 67916
ELEMENT_SET_NO = 999
REV_AT_EPOCH   = 369
BSTAR          = .13584E-2
MEAN_MOTION_DOT = .296666E-2
MEAN_MOTION_DDOT = 0

CCSDS_OMM_VERS = 2.0
CREATION_DATE  = 
ORIGINATOR     = 

OBJECT_NAME    = STARLINK-36722
OBJECT_ID      = 2026-036P
CENTER_NAME    = EARTH
REF_FRAME      = TEME
TIME_SYSTEM    = UTC
MEAN_ELEMENT_THEORY = SGP/SGP4

EPOCH          = 2026-03-09T18:21:57.745152
MEAN_MOTION    = 15.82061259
ECCENTRICITY   = .0002186
INCLINATION    = 42.9991
RA_OF_ASC_NODE = 249.2065
ARG_OF_PERICENTER = 306.6359
MEAN_ANOMALY   = 53.4311

EPHEMERIS_TYPE = 0
CLASSIFICATION_TYPE = U
NORAD_CAT_ID   = 67917
ELEMENT_SET_NO = 999
REV_AT_EPOCH   = 368
BSTAR          = .629E-3
MEAN_MOTION_DOT = .134275E-2
MEAN_MOTION_DDOT = 0

CCSDS_OMM_VERS = 2.0
CREATION_DATE  = 
ORIGINATOR     = 

OBJECT_NAME    = STARLINK-36341
OBJECT_ID      = 2026-036Q
CENTER_NAME    = EARTH
REF_FRAME      = TEME
TIME_SYSTEM    = UTC
MEAN_ELEMENT_THEORY = SGP/SGP4

EPOCH          = 2026-03-08T22:37:58.327680
MEAN_MOTION    = 15.81924776
ECCENTRICITY   = .00023925
INCLINATION    = 42.9986
RA_OF_ASC_NODE = 254.2224
ARG_OF_PERICENTER = 283.2687
MEAN_ANOMALY   = 76.7918

EPHEMERIS_TYPE = 0
CLASSIFICATION_TYPE = U
NORAD_CAT_ID   = 67918
ELEMENT_SET_NO = 999
REV_AT_EPOCH   = 355
BSTAR          = .15767743E-3
MEAN_MOTION_DOT = .32654E-3
MEAN_MOTION_DDOT = 0

CCSDS_OMM_VERS = 2.0
CREATION_DATE  = 
ORIGINATOR     = 

OBJECT_NAME    = STARLINK-36663
OBJECT_ID      = 2026-036R
CENTER_NAME    = EARTH
REF_FRAME      = TEME
TIME_SYSTEM    = UTC
MEAN_ELEMENT_THEORY = SGP/SGP4

EPOCH          = 2026-03-09T20:00:00.999360
MEAN_MOTION    = 15.82026670
ECCENTRICITY   = .0001697
INCLINATION    = 42.9995
RA_OF_ASC_NODE = 248.7816
ARG_OF_PERICENTER = 278.2453
MEAN_ANOMALY   = 114.3584

EPHEMERIS_TYPE = 0
CLASSIFICATION_TYPE = U
NORAD_CAT_ID   = 67919
ELEMENT_SET_NO = 999
REV_AT_EPOCH   = 367
BSTAR          = .378E-4
MEAN_MOTION_DOT = .7437E-4
MEAN_MOTION_DDOT = 0

CCSDS_OMM_VERS = 2.0
CREATION_DATE  = 
ORIGINATOR     = 

OBJECT_NAME    = STARLINK-36375
OBJECT_ID      = 2026-036S
CENTER_NAME    = EARTH
REF_FRAME      = TEME
TIME_SYSTEM    = UTC
MEAN_ELEMENT_THEORY = SGP/SGP4

EPOCH          = 2026-03-09T12:15:04.342752
MEAN_MOTION    = 15.82081593
ECCENTRICITY   = .00020704
INCLINATION    = 42.9988
RA_OF_ASC_NODE = 250.7351
ARG_OF_PERICENTER = 268.4533
MEAN_ANOMALY   = 91.6102

EPHEMERIS_TYPE = 0
CLASSIFICATION_TYPE = U
NORAD_CAT_ID   = 67920
ELEMENT_SET_NO = 999
REV_AT_EPOCH   = 364
BSTAR          = .19289411E-2
MEAN_MOTION_DOT = .427659E-2
MEAN_MOTION_DDOT = 0

